STARLINK-2301
1 18021C 21024AW  21326.18594735  .00002048  00000-0  13721-3 0  3265
2 18021  53.0548 112.8918 0001765  76.0476 212.6797 15.06400300    15
